{"type": "FeatureCollection", "features": [ {"type": "Feature", "properties": {"norad_id": 34861, "name": "COSMOS 2251 DEB", "group": "cosmos-2251-debris", "lat": -65.89210742568218, "lon": -71.80466730579708, "alt_km": 572.7329869128935, "timestamp": "2025-12-04T03:47:54.937393+00:00", "meta": {"OBJECT_NAME": "COSMOS 2251 DEB", "OBJECT_ID": "1993-036ACF", "EPOCH": "2025-12-03T06:01:48.787104", "MEAN_MOTION": 15.01590814, "ECCENTRICITY": 0.0005956, "INCLINATION": 74.0186, "RA_OF_ASC_NODE": 70.2195, "ARG_OF_PERICENTER": 81.3794, "MEAN_ANOMALY": 309.1741, "EPHEMERIS_TYPE": 0, "CLASSIFICATION_TYPE": "U", "NORAD_CAT_ID": 34861, "ELEMENT_SET_NO": 999, "REV_AT_EPOCH": 87950, "BSTAR": 0.0032722, "MEAN_MOTION_DOT": 0.00042671, "MEAN_MOTION_DDOT": 0}, "tle": {"line1": "1 34861U 93036ACF 25337.25125911  .00042671  00000+0  32722-2 0  9996", "line2": "2 34861  74.0186  70.2195 0005956  81.3794 309.1741 15.01590814879509"}}, "geometry": {"type": "Point", "coordinates": [-71.80466730579708, -65.89210742568218]}}, {"type": "Feature", "properties": {"norad_id": 34874, "name": "COSMOS 2251 DEB", "group": "cosmos-2251-debris", "lat": 69.313380622492, "lon": 138.80519372107605, "alt_km": 735.932623401578, "timestamp": "2025-12-04T03:47:54.937403+00:00", "meta": {"OBJECT_NAME": "COSMOS 2251 DEB", "OBJECT_ID": "1993-036ACM", "EPOCH": "2025-12-03T07:32:24.014112", "MEAN_MOTION": 14.3622583, "ECCENTRICITY": 0.0051549, "INCLINATION": 74.039, "RA_OF_ASC_NODE": 91.0729, "ARG_OF_PERICENTER": 119.3072, "MEAN_ANOMALY": 275.1371, "EPHEMERIS_TYPE": 0, "CLASSIFICATION_TYPE": "U", "NORAD_CAT_ID": 34874, "ELEMENT_SET_NO": 999, "REV_AT_EPOCH": 86909, "BSTAR": 0.0014888, "MEAN_MOTION_DOT": 4.389e-05, "MEAN_MOTION_DDOT": 0}, "tle": {"line1": "1 34874U 93036ACM 25337.31416683  .00004389  00000+0  14888-2 0  9993", "line2": "2 34874  74.0390  91.0729 0051549 119.3072 275.1371 14.36225830869098"}}, "geometry": {"type": "Point", "coordinates": [138.80519372107605, 69.313380622492]}}, {"type": "Feature", "properties": {"norad_id": 34875, "name": "COSMOS 2251 DEB", "group": "cosmos-2251-debris", "lat": 71.1227916102432, "lon": -62.50753778571075, "alt_km": 732.8810253831207, "timestamp": "2025-12-04T03:47:54.937413+00:00", "meta": {"OBJECT_NAME": "COSMOS 2251 DEB", "OBJECT_ID": "1993-036ACN", "EPOCH": "2025-12-02T23:29:38.183424", "MEAN_MOTION": 14.48872152, "ECCENTRICITY": 0.00159602, "INCLINATION": 74.0432, "RA_OF_ASC_NODE": 176.5012, "ARG_OF_PERICENTER": 300.7833, "MEAN_ANOMALY": 130.3671, "EPHEMERIS_TYPE": 0, "CLASSIFICATION_TYPE": "U", "NORAD_CAT_ID": 34875, "ELEMENT_SET_NO": 999, "REV_AT_EPOCH": 87614, "BSTAR": 0.00050895794, "MEAN_MOTION_DOT": 1.901e-05, "MEAN_MOTION_DDOT": 0}, "tle": {"line1": "1 34875U 93036ACN 25336.97891416  .00001901  00000+0  50896-3 0  9993", "line2": "2 34875  74.0432 176.5012 0015960 300.7833 130.3671 14.48872152876145"}}, "geometry": {"type": "Point", "coordinates": [-62.50753778571075, 71.1227916102432]}}, {"type": "Feature", "properties": {"norad_id": 34878, "name": "COSMOS 2251 DEB", "group": "cosmos-2251-debris", "lat": -39.408291785667735, "lon": -105.39561950879796, "alt_km": 1423.7986518775915, "timestamp": "2025-12-04T03:47:54.937423+00:00", "meta": {"OBJECT_NAME": "COSMOS 2251 DEB", "OBJECT_ID": "1993-036ACR", "EPOCH": "2025-12-01T14:17:05.154720", "MEAN_MOTION": 13.44171436, "ECCENTRICITY": 0.04352412, "INCLINATION": 73.9642, "RA_OF_ASC_NODE": 65.0008, "ARG_OF_PERICENTER": 50.7211, "MEAN_ANOMALY": 11.8748, "EPHEMERIS_TYPE": 0, "CLASSIFICATION_TYPE": "U", "NORAD_CAT_ID": 34878, "ELEMENT_SET_NO": 999, "REV_AT_EPOCH": 81123, "BSTAR": 0.00042153975, "MEAN_MOTION_DOT": 4.13e-06, "MEAN_MOTION_DDOT": 0}, "tle": {"line1": "1 34878U 93036ACR 25335.59519855  .00000413  00000+0  42154-3 0  9992", "line2": "2 34878  73.9642  65.0008 0435241  50.7211  11.8748 13.44171436811235"}}, "geometry": {"type": "Point", "coordinates": [-105.39561950879796, -39.408291785667735]}}, {"type": "Feature", "properties": {"norad_id": 34882, "name": "COSMOS 2251 DEB", "group": "cosmos-2251-debris", "lat": 11.40252598408787, "lon": -114.69526111746957, "alt_km": 630.9140386535955, "timestamp": "2025-12-04T03:47:54.937433+00:00", "meta": {"OBJECT_NAME": "COSMOS 2251 DEB", "OBJECT_ID": "1993-036ACV", "EPOCH": "2025-12-03T11:19:04.630368", "MEAN_MOTION": 14.61565557, "ECCENTRICITY": 0.0082423, "INCLINATION": 74.0468, "RA_OF_ASC_NODE": 243.3098, "ARG_OF_PERICENTER": 12.5896, "MEAN_ANOMALY": 347.7302, "EPHEMERIS_TYPE": 0, "CLASSIFICATION_TYPE": "U", "NORAD_CAT_ID": 34882, "ELEMENT_SET_NO": 999, "REV_AT_EPOCH": 88389, "BSTAR": 0.00032362, "MEAN_MOTION_DOT": 1.655e-05, "MEAN_MOTION_DDOT": 0}, "tle": {"line1": "1 34882U 93036ACV 25337.47158137  .00001655  00000+0  32362-3 0  9997", "line2": "2 34882  74.0468 243.3098 0082423  12.5896 347.7302 14.61565557883892"}}, "geometry": {"type": "Point", "coordinates": [-114.69526111746957, 11.40252598408787]}}, {"type": "Feature", "properties": {"norad_id": 34883, "name": "COSMOS 2251 DEB", "group": "cosmos-2251-debris", "lat": 18.543943073994335, "lon": 84.15882074658182, "alt_km": 749.6262474623045, "timestamp": "2025-12-04T03:47:54.937462+00:00", "meta": {"OBJECT_NAME": "COSMOS 2251 DEB", "OBJECT_ID": "1993-036ACW", "EPOCH": "2025-12-03T06:11:49.903008", "MEAN_MOTION": 14.50906978, "ECCENTRICITY": 0.009512, "INCLINATION": 74.1992, "RA_OF_ASC_NODE": 80.3835, "ARG_OF_PERICENTER": 267.1357, "MEAN_ANOMALY": 91.8916, "EPHEMERIS_TYPE": 0, "CLASSIFICATION_TYPE": "U", "NORAD_CAT_ID": 34883, "ELEMENT_SET_NO": 999, "REV_AT_EPOCH": 86302, "BSTAR": 0.0065943, "MEAN_MOTION_DOT": 0.00027681, "MEAN_MOTION_DDOT": 0}, "tle": {"line1": "1 34883U 93036ACW 25337.25821647  .00027681  00000+0  65943-2 0  9994", "line2": "2 34883  74.1992  80.3835 0095120 267.1357  91.8916 14.50906978863027"}}, "geometry": {"type": "Point", "coordinates": [84.15882074658182, 18.543943073994335]}}, {"type": "Feature", "properties": {"norad_id": 34884, "name": "COSMOS 2251 DEB", "group": "cosmos-2251-debris", "lat": -23.42973790844382, "lon": -98.9391077879997, "alt_km": 604.4100265290035, "timestamp": "2025-12-04T03:47:54.937488+00:00", "meta": {"OBJECT_NAME": "COSMOS 2251 DEB", "OBJECT_ID": "1993-036ACX", "EPOCH": "2025-12-03T17:46:24.868704", "MEAN_MOTION": 14.89313579, "ECCENTRICITY": 0.0002861, "INCLINATION": 74.0182, "RA_OF_ASC_NODE": 74.7619, "ARG_OF_PERICENTER": 136.2751, "MEAN_ANOMALY": 349.3751, "EPHEMERIS_TYPE": 0, "CLASSIFICATION_TYPE": "U", "NORAD_CAT_ID": 34884, "ELEMENT_SET_NO": 999, "REV_AT_EPOCH": 87671, "BSTAR": 0.004202, "MEAN_MOTION_DOT": 0.00040048, "MEAN_MOTION_DDOT": 0}, "tle": {"line1": "1 34884U 93036ACX 25337.74056561  .00040048  00000+0  42020-2 0  9997", "line2": "2 34884  74.0182  74.7619 0002861 136.2751 349.3751 14.89313579876718"}}, "geometry": {"type": "Point", "coordinates": [-98.9391077879997, -23.42973790844382]}}, {"type": "Feature", "properties": {"norad_id": 34885, "name": "COSMOS 2251 DEB", "group": "cosmos-2251-debris", "lat": -10.922544662233506, "lon": 22.34643057773404, "alt_km": 725.5761113949111, "timestamp": "2025-12-04T03:47:54.937502+00:00", "meta": {"OBJECT_NAME": "COSMOS 2251 DEB", "OBJECT_ID": "1993-036ACY", "EPOCH": "2025-12-03T19:00:17.072928", "MEAN_MOTION": 14.51427994, "ECCENTRICITY": 0.0015458, "INCLINATION": 74.0311, "RA_OF_ASC_NODE": 199.8683, "ARG_OF_PERICENTER": 285.5707, "MEAN_ANOMALY": 152.0899, "EPHEMERIS_TYPE": 0, "CLASSIFICATION_TYPE": "U", "NORAD_CAT_ID": 34885, "ELEMENT_SET_NO": 999, "REV_AT_EPOCH": 87349, "BSTAR": 0.00094354, "MEAN_MOTION_DOT": 3.746e-05, "MEAN_MOTION_DDOT": 0}, "tle": {"line1": "1 34885U 93036ACY 25337.79186427  .00003746  00000+0  94354-3 0  9990", "line2": "2 34885  74.0311 199.8683 0015458 285.5707 152.0899 14.51427994873498"}}, "geometry": {"type": "Point", "coordinates": [22.34643057773404, -10.922544662233506]}}, {"type": "Feature", "properties": {"norad_id": 34886, "name": "COSMOS 2251 DEB", "group": "cosmos-2251-debris", "lat": 48.011704486046895, "lon": 0.9196581325183255, "alt_km": 455.3892785014323, "timestamp": "2025-12-04T03:47:54.937512+00:00", "meta": {"OBJECT_NAME": "COSMOS 2251 DEB", "OBJECT_ID": "1993-036ACZ", "EPOCH": "2025-12-02T21:33:25.254144", "MEAN_MOTION": 15.36781254, "ECCENTRICITY": 0.00310818, "INCLINATION": 73.9522, "RA_OF_ASC_NODE": 202.2947, "ARG_OF_PERICENTER": 28.5971, "MEAN_ANOMALY": 331.6931, "EPHEMERIS_TYPE": 0, "CLASSIFICATION_TYPE": "U", "NORAD_CAT_ID": 34886, "ELEMENT_SET_NO": 999, "REV_AT_EPOCH": 62847, "BSTAR": 0.0022652604, "MEAN_MOTION_DOT": 0.00083623, "MEAN_MOTION_DDOT": 0}, "tle": {"line1": "1 34886U 93036ACZ 25336.89820896  .00083623  00000+0  22653-2 0  9990", "line2": "2 34886  73.9522 202.2947 0031081  28.5971 331.6931 15.36781254628475"}}, "geometry": {"type": "Point", "coordinates": [0.9196581325183255, 48.011704486046895]}}, {"type": "Feature", "properties": {"norad_id": 34907, "name": "COSMOS 2251 DEB", "group": "cosmos-2251-debris", "lat": -18.847425438108733, "lon": 61.41046836087533, "alt_km": 449.41010140405615, "timestamp": "2025-12-04T03:47:54.937522+00:00", "meta": {"OBJECT_NAME": "COSMOS 2251 DEB", "OBJECT_ID": "1993-036ADC", "EPOCH": "2025-12-03T07:33:59.709024", "MEAN_MOTION": 15.36059766, "ECCENTRICITY": 0.0017302, "INCLINATION": 73.9746, "RA_OF_ASC_NODE": 68.8586, "ARG_OF_PERICENTER": 354.083, "MEAN_ANOMALY": 6.0168, "EPHEMERIS_TYPE": 0, "CLASSIFICATION_TYPE": "U", "NORAD_CAT_ID": 34907, "ELEMENT_SET_NO": 999, "REV_AT_EPOCH": 87828, "BSTAR": 0.0090238, "MEAN_MOTION_DOT": 0.00332594, "MEAN_MOTION_DDOT": 0}, "tle": {"line1": "1 34907U 93036ADC 25337.31527441  .00332594  00000+0  90238-2 0  9990", "line2": "2 34907  73.9746  68.8586 0017302 354.0830   6.0168 15.36059766878280"}}, "geometry": {"type": "Point", "coordinates": [61.41046836087533, -18.847425438108733]}}]}